[{"OBJECT_NAME":"TIANQI-16","OBJECT_ID":"2025-105A","EPOCH":"2026-03-09T12:21:56.157984","MEAN_MOTION":13.99115329,"ECCENTRICITY":0.0012645,"INCLINATION":44.9833,"RA_OF_ASC_NODE":105.8163,"ARG_OF_PERICENTER":266.1357,"MEAN_ANOMALY":93.803,"EPHEMERIS_TYPE":0,"CLASSIFICATION_TYPE":"U","NORAD_CAT_ID":64058,"ELEMENT_SET_NO":999,"REV_AT_EPOCH":4123,"BSTAR":0.00015431,"MEAN_MOTION_DOT":9.7e-7,"MEAN_MOTION_DDOT":0},{"OBJECT_NAME":"COSMOS 1275 DEB","OBJECT_ID":"1981-053CJ","EPOCH":"2026-03-09T20:59:41.932032","MEAN_MOTION":13.90413867,"ECCENTRICITY":0.00628985,"INCLINATION":82.9487,"RA_OF_ASC_NODE":206.3664,"ARG_OF_PERICENTER":354.0043,"MEAN_ANOMALY":125.0086,"EPHEMERIS_TYPE":0,"CLASSIFICATION_TYPE":"U","NORAD_CAT_ID":12741,"ELEMENT_SET_NO":999,"REV_AT_EPOCH":24705,"BSTAR":0.0010850759,"MEAN_MOTION_DOT":1.384e-5,"MEAN_MOTION_DDOT":0}]
